{"type": "FeatureCollection", "features": [ {"type": "Feature", "properties": {"norad_id": 67141, "name": "KUIPER-00187", "group": "last-30-days", "lat": 4.268230944049905, "lon": 60.2130196572115, "alt_km": 459.5946499486645, "timestamp": "2025-12-26T21:25:51.737743+00:00", "meta": {"OBJECT_NAME": "KUIPER-00187", "OBJECT_ID": "2025-301J", "EPOCH": "2025-12-26T13:35:57.643296", "MEAN_MOTION": 15.35866319, "ECCENTRICITY": 0.0004351, "INCLINATION": 51.8716, "RA_OF_ASC_NODE": 58.4274, "ARG_OF_PERICENTER": 116.5736, "MEAN_ANOMALY": 243.5696, "EPHEMERIS_TYPE": 0, "CLASSIFICATION_TYPE": "U", "NORAD_CAT_ID": 67141, "ELEMENT_SET_NO": 999, "REV_AT_EPOCH": 249, "BSTAR": 0.00093981712, "MEAN_MOTION_DOT": 0.00033077, "MEAN_MOTION_DDOT": 0}, "tle": {"line1": "1 67141U 25301J   25360.56663939  .00033077  00000+0  93982-3 0  9996", "line2": "2 67141  51.8716  58.4274 0004351 116.5736 243.5696 15.35866319  2498"}}, "geometry": {"type": "Point", "coordinates": [60.2130196572115, 4.268230944049905]}}, {"type": "Feature", "properties": {"norad_id": 67142, "name": "KUIPER-00188", "group": "last-30-days", "lat": -22.377948101926055, "lon": 38.05305693485247, "alt_km": 469.05695139022555, "timestamp": "2025-12-26T21:25:51.737753+00:00", "meta": {"OBJECT_NAME": "KUIPER-00188", "OBJECT_ID": "2025-301K", "EPOCH": "2025-12-26T15:18:24.104736", "MEAN_MOTION": 15.34956781, "ECCENTRICITY": 0.00073744, "INCLINATION": 51.8696, "RA_OF_ASC_NODE": 58.1524, "ARG_OF_PERICENTER": 137.0938, "MEAN_ANOMALY": 223.0624, "EPHEMERIS_TYPE": 0, "CLASSIFICATION_TYPE": "U", "NORAD_CAT_ID": 67142, "ELEMENT_SET_NO": 999, "REV_AT_EPOCH": 250, "BSTAR": 0.00084104685, "MEAN_MOTION_DOT": 0.00028702, "MEAN_MOTION_DDOT": 0}, "tle": {"line1": "1 67142U 25301K   25360.63777899  .00028702  00000+0  84105-3 0  9992", "line2": "2 67142  51.8696  58.1524 0007374 137.0938 223.0624 15.34956781  2509"}}, "geometry": {"type": "Point", "coordinates": [38.05305693485247, -22.377948101926055]}}, {"type": "Feature", "properties": {"norad_id": 67143, "name": "KUIPER-00191", "group": "last-30-days", "lat": -15.62278683858016, "lon": 44.21613410803271, "alt_km": 466.9315215364886, "timestamp": "2025-12-26T21:25:51.737763+00:00", "meta": {"OBJECT_NAME": "KUIPER-00191", "OBJECT_ID": "2025-301L", "EPOCH": "2025-12-26T12:08:39.084288", "MEAN_MOTION": 15.35187778, "ECCENTRICITY": 0.00066506, "INCLINATION": 51.868, "RA_OF_ASC_NODE": 58.7716, "ARG_OF_PERICENTER": 133.7778, "MEAN_ANOMALY": 226.3759, "EPHEMERIS_TYPE": 0, "CLASSIFICATION_TYPE": "U", "NORAD_CAT_ID": 67143, "ELEMENT_SET_NO": 999, "REV_AT_EPOCH": 251, "BSTAR": 0.0011819205, "MEAN_MOTION_DOT": 0.00040852, "MEAN_MOTION_DDOT": 0}, "tle": {"line1": "1 67143U 25301L   25360.50600792  .00040852  00000+0  11819-2 0  9997", "line2": "2 67143  51.8680  58.7716 0006650 133.7778 226.3759 15.35187778  2512"}}, "geometry": {"type": "Point", "coordinates": [44.21613410803271, -15.62278683858016]}}, {"type": "Feature", "properties": {"norad_id": 67144, "name": "KUIPER-00196", "group": "last-30-days", "lat": 11.010086045331045, "lon": 65.62124491032006, "alt_km": 456.8659671749301, "timestamp": "2025-12-26T21:25:51.737773+00:00", "meta": {"OBJECT_NAME": "KUIPER-00196", "OBJECT_ID": "2025-301M", "EPOCH": "2025-12-26T13:33:46.577088", "MEAN_MOTION": 15.36059162, "ECCENTRICITY": 0.00038651, "INCLINATION": 51.8736, "RA_OF_ASC_NODE": 58.4142, "ARG_OF_PERICENTER": 101.5158, "MEAN_ANOMALY": 258.6262, "EPHEMERIS_TYPE": 0, "CLASSIFICATION_TYPE": "U", "NORAD_CAT_ID": 67144, "ELEMENT_SET_NO": 999, "REV_AT_EPOCH": 249, "BSTAR": 0.00084927224, "MEAN_MOTION_DOT": 0.00030026, "MEAN_MOTION_DDOT": 0}, "tle": {"line1": "1 67144U 25301M   25360.56512242  .00030026  00000+0  84927-3 0  9999", "line2": "2 67144  51.8736  58.4142 0003865 101.5158 258.6262 15.36059162  2495"}}, "geometry": {"type": "Point", "coordinates": [65.62124491032006, 11.010086045331045]}}, {"type": "Feature", "properties": {"norad_id": 67145, "name": "KUIPER-00204", "group": "last-30-days", "lat": 25.817084023951068, "lon": 79.11495129243164, "alt_km": 452.1272466021828, "timestamp": "2025-12-26T21:25:51.737785+00:00", "meta": {"OBJECT_NAME": "KUIPER-00204", "OBJECT_ID": "2025-301N", "EPOCH": "2025-12-26T15:02:30.144192", "MEAN_MOTION": 15.3657137, "ECCENTRICITY": 0.0002035, "INCLINATION": 51.8744, "RA_OF_ASC_NODE": 58.0703, "ARG_OF_PERICENTER": 77.8958, "MEAN_ANOMALY": 282.2256, "EPHEMERIS_TYPE": 0, "CLASSIFICATION_TYPE": "U", "NORAD_CAT_ID": 67145, "ELEMENT_SET_NO": 999, "REV_AT_EPOCH": 261, "BSTAR": 0.00079609852, "MEAN_MOTION_DOT": 0.00028584, "MEAN_MOTION_DDOT": 0}, "tle": {"line1": "1 67145U 25301N   25360.62673778  .00028584  00000+0  79610-3 0  9998", "line2": "2 67145  51.8744  58.0703 0002035  77.8958 282.2256 15.36571370  2615"}}, "geometry": {"type": "Point", "coordinates": [79.11495129243164, 25.817084023951068]}}, {"type": "Feature", "properties": {"norad_id": 67146, "name": "KUIPER-00210", "group": "last-30-days", "lat": -42.0878120917963, "lon": 11.770428093341911, "alt_km": 473.8023021137242, "timestamp": "2025-12-26T21:25:51.737795+00:00", "meta": {"OBJECT_NAME": "KUIPER-00210", "OBJECT_ID": "2025-301P", "EPOCH": "2025-12-26T15:25:56.591904", "MEAN_MOTION": 15.34199961, "ECCENTRICITY": 0.00105946, "INCLINATION": 51.8601, "RA_OF_ASC_NODE": 58.1848, "ARG_OF_PERICENTER": 151.5196, "MEAN_ANOMALY": 208.637, "EPHEMERIS_TYPE": 0, "CLASSIFICATION_TYPE": "U", "NORAD_CAT_ID": 67146, "ELEMENT_SET_NO": 999, "REV_AT_EPOCH": 267, "BSTAR": 0.00088209815, "MEAN_MOTION_DOT": 0.00029428, "MEAN_MOTION_DDOT": 0}, "tle": {"line1": "1 67146U 25301P   25360.64301611  .00029428  00000+0  88210-3 0  9999", "line2": "2 67146  51.8601  58.1848 0010594 151.5196 208.6370 15.34199961  2677"}}, "geometry": {"type": "Point", "coordinates": [11.770428093341911, -42.0878120917963]}}, {"type": "Feature", "properties": {"norad_id": 67147, "name": "KUIPER-00221", "group": "last-30-days", "lat": 1.4484262719026268, "lon": 57.99713056276127, "alt_km": 460.5202968093654, "timestamp": "2025-12-26T21:25:51.737805+00:00", "meta": {"OBJECT_NAME": "KUIPER-00221", "OBJECT_ID": "2025-301Q", "EPOCH": "2025-12-26T13:36:51.784992", "MEAN_MOTION": 15.357619, "ECCENTRICITY": 0.00050184, "INCLINATION": 51.8724, "RA_OF_ASC_NODE": 58.4309, "ARG_OF_PERICENTER": 114.1511, "MEAN_ANOMALY": 246, "EPHEMERIS_TYPE": 0, "CLASSIFICATION_TYPE": "U", "NORAD_CAT_ID": 67147, "ELEMENT_SET_NO": 999, "REV_AT_EPOCH": 249, "BSTAR": 0.00099577279, "MEAN_MOTION_DOT": 0.00034963, "MEAN_MOTION_DDOT": 0}, "tle": {"line1": "1 67147U 25301Q   25360.56726603  .00034963  00000+0  99577-3 0  9991", "line2": "2 67147  51.8724  58.4309 0005018 114.1511 246.0000 15.35761900  2495"}}, "geometry": {"type": "Point", "coordinates": [57.99713056276127, 1.4484262719026268]}}, {"type": "Feature", "properties": {"norad_id": 67148, "name": "KUIPER-00232", "group": "last-30-days", "lat": 30.543619487381353, "lon": 84.38337305773456, "alt_km": 450.79495690265867, "timestamp": "2025-12-26T21:25:51.737815+00:00", "meta": {"OBJECT_NAME": "KUIPER-00232", "OBJECT_ID": "2025-301R", "EPOCH": "2025-12-26T13:27:10.377792", "MEAN_MOTION": 15.36722826, "ECCENTRICITY": 0.0001647, "INCLINATION": 51.8746, "RA_OF_ASC_NODE": 58.3815, "ARG_OF_PERICENTER": 50.5571, "MEAN_ANOMALY": 309.5561, "EPHEMERIS_TYPE": 0, "CLASSIFICATION_TYPE": "U", "NORAD_CAT_ID": 67148, "ELEMENT_SET_NO": 999, "REV_AT_EPOCH": 249, "BSTAR": 0.0005919398, "MEAN_MOTION_DOT": 0.00021238, "MEAN_MOTION_DDOT": 0}, "tle": {"line1": "1 67148U 25301R   25360.56053678  .00021238  00000+0  59194-3 0  9999", "line2": "2 67148  51.8746  58.3815 0001647  50.5571 309.5561 15.36722826  2496"}}, "geometry": {"type": "Point", "coordinates": [84.38337305773456, 30.543619487381353]}}, {"type": "Feature", "properties": {"norad_id": 67149, "name": "KUIPER-00241", "group": "last-30-days", "lat": 17.211396440250855, "lon": 70.89159514274623, "alt_km": 454.9475787804513, "timestamp": "2025-12-26T21:25:51.737825+00:00", "meta": {"OBJECT_NAME": "KUIPER-00241", "OBJECT_ID": "2025-301S", "EPOCH": "2025-12-26T13:31:44.941440", "MEAN_MOTION": 15.3627316, "ECCENTRICITY": 0.00028198, "INCLINATION": 51.8745, "RA_OF_ASC_NODE": 58.4011, "ARG_OF_PERICENTER": 98.3919, "MEAN_ANOMALY": 261.7387, "EPHEMERIS_TYPE": 0, "CLASSIFICATION_TYPE": "U", "NORAD_CAT_ID": 67149, "ELEMENT_SET_NO": 999, "REV_AT_EPOCH": 282, "BSTAR": 0.00058232928, "MEAN_MOTION_DOT": 0.00020582, "MEAN_MOTION_DDOT": 0}, "tle": {"line1": "1 67149U 25301S   25360.56371460  .00020582  00000+0  58233-3 0  9996", "line2": "2 67149  51.8745  58.4011 0002819  98.3919 261.7387 15.36273160  2827"}}, "geometry": {"type": "Point", "coordinates": [70.89159514274623, 17.211396440250855]}}, {"type": "Feature", "properties": {"norad_id": 67150, "name": "KUIPER-00245", "group": "last-30-days", "lat": -1.3300116770116377, "lon": 55.81945972175132, "alt_km": 461.8128982861863, "timestamp": "2025-12-26T21:25:51.737837+00:00", "meta": {"OBJECT_NAME": "KUIPER-00245", "OBJECT_ID": "2025-301T", "EPOCH": "2025-12-26T13:37:45.162912", "MEAN_MOTION": 15.35664172, "ECCENTRICITY": 0.00050166, "INCLINATION": 51.8731, "RA_OF_ASC_NODE": 58.4328, "ARG_OF_PERICENTER": 122.7177, "MEAN_ANOMALY": 237.4293, "EPHEMERIS_TYPE": 0, "CLASSIFICATION_TYPE": "U", "NORAD_CAT_ID": 67150, "ELEMENT_SET_NO": 999, "REV_AT_EPOCH": 249, "BSTAR": 0.00084747603, "MEAN_MOTION_DOT": 0.00029583, "MEAN_MOTION_DDOT": 0}, "tle": {"line1": "1 67150U 25301T   25360.56788383  .00029583  00000+0  84748-3 0  9994", "line2": "2 67150  51.8731  58.4328 0005016 122.7177 237.4293 15.35664172  2490"}}, "geometry": {"type": "Point", "coordinates": [55.81945972175132, -1.3300116770116377]}}]}